[{"OBJECT_NAME":"STARLINK-33749","OBJECT_ID":"2025-087V","EPOCH":"2026-03-09T22:27:19.059264","MEAN_MOTION":15.30199515,"ECCENTRICITY":0.00012516,"INCLINATION":53.16,"RA_OF_ASC_NODE":218.6688,"ARG_OF_PERICENTER":67.0175,"MEAN_ANOMALY":293.0958,"EPHEMERIS_TYPE":0,"CLASSIFICATION_TYPE":"U","NORAD_CAT_ID":63716,"ELEMENT_SET_NO":999,"REV_AT_EPOCH":4923,"BSTAR":0.0011386374,"MEAN_MOTION_DOT":0.00033516,"MEAN_MOTION_DDOT":0},{"OBJECT_NAME":"FREGAT DEB","OBJECT_ID":"2011-037BV","EPOCH":"2026-03-08T05:45:34.376544","MEAN_MOTION":11.841002,"ECCENTRICITY":0.16352432,"INCLINATION":51.4346,"RA_OF_ASC_NODE":250.7968,"ARG_OF_PERICENTER":264.1792,"MEAN_ANOMALY":77.1145,"EPHEMERIS_TYPE":0,"CLASSIFICATION_TYPE":"U","NORAD_CAT_ID":45835,"ELEMENT_SET_NO":999,"REV_AT_EPOCH":24132,"BSTAR":0.0027919036,"MEAN_MOTION_DOT":0.00015279,"MEAN_MOTION_DDOT":0}]
